[
    {
        "Altitude(m)": 612502.2337773865,
        "Argument of Periapsis(deg)": 0.0,
        "Eccentricity": 0.0,
        "Inclination(deg)": 60.0,
        "Latitude(deg)": -28.136099880238795,
        "Longitude(deg)": -147.85180321465148,
        "Mean Anomaly(deg)": -32.72730000000001,
        "RAAN(deg)": 330.0,
        "Satellite Name": "Test1 1472",
        "Satellite Number": 1472,
        "Semi-Major Axis(m)": 6980739.136638005,
        "Time(s)": 0
    },
    {
        "Altitude(m)": 612308.6813766386,
        "Argument of Periapsis(deg)": 0.00010418945913296404,
        "Eccentricity": 0.0,
        "Inclination(deg)": 60.0,
        "Latitude(deg)": -27.62315580694775,
        "Longitude(deg)": -147.49832753212561,
        "Mean Anomaly(deg)": -32.10719385453816,
        "RAAN(deg)": 329.9995799508602,
        "Satellite Name": "Test1 1472",
        "Satellite Number": 1472,
        "Semi-Major Axis(m)": 6980739.136638005,
        "Time(s)": 10
    }
]